FENGYUN 1C DEB          
1 31286U 99025BNU 17345.74537457  .00001561  00000-0  10388-2 0  9992
2 31286 100.8771 332.5099 0108413   2.5359 357.6327 14.00429703229420
